CCSDS_OEM_VERS = 2.0
CREATION_DATE  = 2023-09-15T14:09:47.944
ORIGINATOR     = NASA/JSC/FOD/TOPO

META_START
OBJECT_NAME          = ISS
OBJECT_ID            = 1998-067-A
CENTER_NAME          = Earth
REF_FRAME            = EME2000
TIME_SYSTEM          = UTC
START_TIME           = 2023-09-15T12:00:00.000
USEABLE_START_TIME   = 2023-09-15T12:00:00.000
USEABLE_STOP_TIME    = 2023-09-30T12:00:00.000
STOP_TIME            = 2023-09-30T12:00:00.000
META_STOP

COMMENT Source: This file was produced by the TOPO office within FOD at JSC.
COMMENT Units are in kg and m^2
COMMENT MASS=459476.00
COMMENT DRAG_AREA=1442.60
COMMENT DRAG_COEFF=2.00
COMMENT SOLAR_RAD_AREA=0.00
COMMENT SOLAR_RAD_COEFF=0.00
COMMENT Orbits start at the ascending node epoch
COMMENT ISS first asc. node: EPOCH = 2023-09-15T12:22:18.470 $ ORBIT = 1579 $ LAN(DEG) = 61.30010
COMMENT ISS last asc. node : EPOCH = 2023-09-30T11:28:06.914 $ ORBIT = 1811 $ LAN(DEG) = -13.97144
COMMENT Begin sequence of events
COMMENT TRAJECTORY EVENT SUMMARY:
COMMENT 
COMMENT |       EVENT        |       TIG        | ORB |   DV    |   HA    |   HP    |
COMMENT |                    |       GMT        |     |   M/S   |   KM    |   KM    |
COMMENT |                    |                  |     |  (F/S)  |  (NM)   |  (NM)   |
COMMENT =============================================================================
COMMENT  70S Launch            258:15:44:35.000             0.0     426.5     410.3
COMMENT                                                    (0.0)   (230.3)   (221.6)
COMMENT 
COMMENT  70S Docking           258:18:55:59.000             0.0     426.5     410.3
COMMENT                                                    (0.0)   (230.3)   (221.6)
COMMENT 
COMMENT  69S Undock            270:07:51:30.000             0.0     426.6     407.8
COMMENT                                                    (0.0)   (230.3)   (220.2)
COMMENT 
COMMENT  GMT 272 Reboost       272:11:46:00.000             0.7     426.4     407.4
COMMENT                                                    (2.3)   (230.3)   (220.0)
COMMENT 
COMMENT =============================================================================
COMMENT End sequence of events
2023-09-24T16:17:00.000 -5467.663466924070 -3343.543547960110 2243.920098095110 4.26702004501731 -3.30263478747128 5.44715744395166
2023-09-24T16:21:00.000 -4256.679548450090 -4004.600401479340 3453.210319883010 5.76270130643821 -2.17246405145247 4.56840783748010
2023-09-24T16:25:00.000 -2735.297559081990 -4373.650492119690 4409.990050574050 6.83780566524275 -0.88422625737804 3.35590623579322
2023-09-24T16:29:00.000 -1014.537652857310 -4423.916094715530 5044.427180663090 7.41408824103353 0.46778337509266 1.89876771921639
2023-09-24T16:33:00.000 780.135993672651 -4151.902820497940 5310.334805105770 7.45008083407218 1.78503354782149 0.30366021447613
2023-09-24T16:37:00.000 2518.000008824890 -3577.559119551990 5188.451149814290 6.94362421598952 2.97186437922458 -1.31306403151223
2023-09-24T16:41:00.000 4072.544993845450 -2742.770146205370 4687.769124011410 5.93176255346928 3.94219214687887 -2.83370746480039
2023-09-24T16:45:00.000 5330.616128199450 -1708.320598101920 3844.857132676030 4.48808777283541 4.62554644612601 -4.14752646787853
2023-09-24T16:49:00.000 6200.622665881720 -549.509056460121 2721.239952343180 2.71768984320096 4.97220516805602 -5.15854377843301
2023-09-24T16:53:00.000 6619.277390404680 649.312679711367 1398.967493182260 0.74990917258158 4.95694554425404 -5.79284364054399
2023-09-24T16:57:00.000 6556.293949035090 1800.909894626460 -25.407344918529 -1.27129888032123 4.58114518938782 -6.00422547455917
2023-09-24T17:01:00.000 6016.632566536580 2821.595555320010 -1447.949645753330 -3.19803459598693 3.87283840736492 -5.77782184383074
2023-09-24T17:05:00.000 5040.067067423940 3637.417822789970 -2765.069474205310 -4.89000385951312 2.88452754387573 -5.13129481896472
2023-09-24T17:09:00.000 3698.054867863240 4189.535128296220 -3881.156453339070 -6.22507313038096 1.68877686658141 -4.11297088991499
2023-09-24T17:13:00.000 2088.302446194990 4438.370813810230 -4715.484062768420 -7.10787986134644 0.37254130836136 -2.79769687394262
2023-09-24T17:17:00.000 327.539143652157 4366.301667986110 -5207.895384744790 -7.47608297463883 -0.96931407180511 -1.28094312307584
2023-09-24T17:21:00.000 -1456.893999041780 3978.752835837520 -5322.937277120180 -7.30401116225489 -2.24068663290607 0.32810254491291
2023-09-24T17:25:00.000 -3136.044279759240 3303.713473621440 -5052.257224449310 -6.60391230991245 -3.35066465043517 1.91405491842478
2023-09-24T17:29:00.000 -4588.384328939180 2389.773472640210 -4415.182314110420 -5.42511657129283 -4.21945098036718 3.36291501373678
2023-09-24T17:33:00.000 -5708.407061091570 1302.786218691750 -3457.465705674890 -3.85113217465492 -4.78383576866786 4.56973066005139
2023-09-24T17:37:00.000 -6414.259012713660 121.305760396565 -2248.216006035780 -1.99452184814880 -5.00188489622877 5.44601958666590
2023-09-24T17:41:00.000 -6653.875749498280 -1068.969243070600 -875.114613077243 0.01045663827129 -4.85646414136250 5.92654645596511
2023-09-24T17:45:00.000 -6409.074806305040 -2181.405326395180 561.856346032743 2.01744932316018 -4.35704036362360 5.97477408906559
2023-09-24T17:49:00.000 -5697.171114449710 -3134.840260424040 1957.743356671160 3.87891999898085 -3.53956315010762 5.58619189910589
2023-09-24T17:53:00.000 -4569.843054776510 -3859.684943370820 3210.462737479070 5.45797448690119 -2.46384031763947 4.78905421960394
2023-09-24T17:57:00.000 -3109.279981133350 -4303.096138657150 4228.421726493450 6.63881884984764 -1.20871248688212 3.64193728271285
2023-09-24T18:01:00.000 -1422.055409349200 -4432.848013083970 4937.288947303030 7.33529956881162 0.13394710689157 2.22916987735803
2023-09-24T18:05:00.000 368.783967090162 -4239.640478812620 5285.424622830010 7.49709623421827 1.46616318989751 0.65429553164481
2023-09-24T18:09:00.000 2132.770002576040 -3737.692732667150 5247.565766643980 7.11295516918346 2.69111026913970 -0.96778294983425
2023-09-24T18:13:00.000 3741.480490141960 -2963.634802099880 4826.575561029410 6.21104805169116 3.71993914003410 -2.51895183957980
2023-09-24T18:17:00.000 5077.812351600340 -1973.840226100570 4053.216169288610 4.85698915943783 4.47795048720165 -3.88622342188167
2023-09-24T18:21:00.000 6044.474935015990 -840.358623235045 2983.939112165760 3.14931281246051 4.91000459839451 -4.96979275895921
2023-09-24T18:25:00.000 6571.122138903260 354.296807195683 1696.824813711060 1.21270774180613 4.98462976355892 -5.69039206617457
2023-09-24T18:29:00.000 6619.580802936000 1523.183543814110 285.872121739411 -0.81111441706832 4.69664783410698 -5.99550503309678
2023-09-24T18:33:00.000 6186.665450747610 2581.334236550860 -1145.947241525060 -2.77411984109478 4.06759391734966 -5.86333443560625
2023-09-24T18:37:00.000 5304.366606532350 3452.018180211720 -2494.313955512030 -4.53312621507100 3.14412737043305 -5.30453847564971
2023-09-24T18:41:00.000 4037.331817636200 4072.357873691000 -3661.279754606060 -5.96088211664788 1.99422461553664 -4.36109681013199
2023-09-24T18:45:00.000 2477.907670952620 4397.812583686780 -4562.376753824450 -6.95515806848780 0.70171709170849 -3.10259033165568
2023-09-24T18:49:00.000 739.261642948405 4405.231085024210 -5132.600953600090 -7.44557518298725 -0.64007924580207 -1.62057350828495
2023-09-24T18:53:00.000 -1052.811952056190 4094.339032824020 -5330.896266188420 -7.39780491592597 -1.93494089778129 -0.02187317163922
2023-09-24T18:57:00.000 -2768.814877412010 3487.646831893700 -5142.941842005080 -6.81541523438863 -3.09028793197690 1.57880314685508
2023-09-24T19:01:00.000 -4284.629292990590 2628.832385443100 -4582.126448048650 -5.73943100205049 -4.02325134820169 3.06652841200712
2023-09-24T19:05:00.000 -5490.259658554680 1579.741809829690 -3688.686747030260 -4.24594345978688 -4.66619499052871 4.33377043714006
2023-09-24T19:09:00.000 -6297.742429579340 416.122448295557 -2527.023134432490 -2.44150230455590 -4.97164946243400 5.28791463177799
2023-09-24T19:13:00.000 -6647.675511433230 -777.702387025719 -1181.271749967760 -0.45623992651464 -4.91614693668080 5.85818867142252
2023-09-24T19:17:00.000 -6513.835506856510 -1914.910413079100 250.664831991290 1.56517819611794 -4.50256938403697 6.00149157883490
2023-09-24T19:21:00.000 -5905.381586624380 -2912.582326732720 1664.270781323470 3.47445927099202 -3.76040328019446 5.70622814797724
2023-09-24T19:25:00.000 -4866.360563568200 -3697.889283722140 2956.177309507100 5.13106185529097 -2.74374592711980 4.99356023212942
2023-09-24T19:29:00.000 -3472.494230038630 -4213.550211686300 4031.909514447620 6.41333692371044 -1.52719717304544 3.91591240077005
2023-09-24T19:33:00.000 -1825.482843900590 -4422.059827478280 4812.899545225700 7.22772839547977 -0.19985841528364 2.55251380798679
2023-09-24T19:37:00.000 -45.440328992237 -4308.364823860740 5242.212573610080 7.51521875298648 1.14142248036643 1.00326800422754
2023-09-24T19:41:00.000 1737.922163866510 -3880.884888489710 5288.640518413920 7.25529796392196 2.39906965275323 -0.61865754857718
2023-09-24T19:45:00.000 3394.745991543330 -3170.838745715990 4948.903489259560 6.46719405585983 3.48180402298128 -2.19511502025036
2023-09-24T19:49:00.000 4804.414834511260 -2229.947811379450 4247.837312623690 5.20823806073033 4.31104133796714 -3.61130757137460
2023-09-24T19:53:00.000 5864.284010076870 -1126.707645548080 3236.617952352000 3.57002692471943 4.82643068642498 -4.76386334358006
2023-09-24T19:57:00.000 6497.200840903010 58.556552692499 1989.085517788400 1.67212479966863 4.99040322139106 -5.56849510169226
2023-09-24T20:01:00.000 6657.213772003970 1239.556277387280 596.357423369003 -0.34660096890167 4.79116653571215 -5.96643396039997
2023-09-24T20:05:00.000 6332.996989666460 2330.397192550520 -839.891155365809 -2.33835115592002 4.24380037120858 -5.92906326762600
